{
  "type": "FeatureCollection",
  "features": [
    {
      "type": "Feature",
      "properties": {
        "norad_id": 54741,
        "name": "GALAXY 35 (G-35)",
        "group": "intelsat",
        "lat": -0.019698341349248593,
        "lon": -140.18389160357364,
        "alt_km": 35781.16938347463,
        "timestamp": "2025-12-27T14:26:30.184502+00:00",
        "meta_object_name": "GALAXY 35 (G-35)",
        "meta_object_id": "2022-170A",
        "meta_epoch": "2025-12-27T05:42:39.710304",
        "meta_mean_motion": 1.00268795,
        "meta_eccentricity": 0.00026197,
        "meta_inclination": 0.0111,
        "meta_ra_of_asc_node": 351.8184,
        "meta_arg_of_pericenter": 286.6636,
        "meta_mean_anomaly": 170.0523,
        "meta_ephemeris_type": 0,
        "meta_classification_type": "U",
        "meta_norad_cat_id": 54741,
        "meta_element_set_no": 999,
        "meta_rev_at_epoch": 1117,
        "meta_bstar": 0,
        "meta_mean_motion_dot": 0,
        "meta_mean_motion_ddot": 0,
        "tle_line1": "1 54741U 22170A   25361.23795961  .00000000  00000+0  00000+0 0  9990",
        "tle_line2": "2 54741   0.0111 351.8184 0002619 286.6636 170.0523  1.00268795 11177"
      },
      "geometry": {
        "type": "Point",
        "coordinates": [
          -140.18389160357364,
          -0.019698341349248593
        ]
      }
    },
    {
      "type": "Feature",
      "properties": {
        "norad_id": 54742,
        "name": "GALAXY 36 (G-36)",
        "group": "intelsat",
        "lat": 0.006571364348600367,
        "lon": -136.0473545580157,
        "alt_km": 35786.71844531336,
        "timestamp": "2025-12-27T14:26:30.184516+00:00",
        "meta_object_name": "GALAXY 36 (G-36)",
        "meta_object_id": "2022-170B",
        "meta_epoch": "2025-12-27T05:39:55.754208",
        "meta_mean_motion": 1.00271515,
        "meta_eccentricity": 4.609e-05,
        "meta_inclination": 0.0242,
        "meta_ra_of_asc_node": 105.4723,
        "meta_arg_of_pericenter": 224.8294,
        "meta_mean_anomaly": 121.6598,
        "meta_ephemeris_type": 0,
        "meta_classification_type": "U",
        "meta_norad_cat_id": 54742,
        "meta_element_set_no": 999,
        "meta_rev_at_epoch": 1105,
        "meta_bstar": 0,
        "meta_mean_motion_dot": -1.63e-06,
        "meta_mean_motion_ddot": 0,
        "tle_line1": "1 54742U 22170B   25361.23606197 -.00000163  00000+0  00000+0 0  9994",
        "tle_line2": "2 54742   0.0242 105.4723 0000460 224.8294 121.6598  1.00271515 11056"
      },
      "geometry": {
        "type": "Point",
        "coordinates": [
          -136.0473545580157,
          0.006571364348600367
        ]
      }
    },
    {
      "type": "Feature",
      "properties": {
        "norad_id": 57493,
        "name": "GALAXY 37 (G-37)",
        "group": "intelsat",
        "lat": 0.012289103049361247,
        "lon": -174.08305310012298,
        "alt_km": 35786.55873142627,
        "timestamp": "2025-12-27T14:26:30.184529+00:00",
        "meta_object_name": "GALAXY 37 (G-37)",
        "meta_object_id": "2023-112A",
        "meta_epoch": "2025-12-27T05:32:55.641984",
        "meta_mean_motion": 1.0027199,
        "meta_eccentricity": 0.00022151,
        "meta_inclination": 0.0138,
        "meta_ra_of_asc_node": 47.0546,
        "meta_arg_of_pericenter": 232.3392,
        "meta_mean_anomaly": 132.7964,
        "meta_ephemeris_type": 0,
        "meta_classification_type": "U",
        "meta_norad_cat_id": 57493,
        "meta_element_set_no": 999,
        "meta_rev_at_epoch": 881,
        "meta_bstar": 0,
        "meta_mean_motion_dot": 7e-07,
        "meta_mean_motion_ddot": 0,
        "tle_line1": "1 57493U 23112A   25361.23119956  .00000070  00000+0  00000+0 0  9995",
        "tle_line2": "2 57493   0.0138  47.0546 0002215 232.3392 132.7964  1.00271990  8810"
      },
      "geometry": {
        "type": "Point",
        "coordinates": [
          -174.08305310012298,
          0.012289103049361247
        ]
      }
    }
  ]
}